[{"spaceTrack":{"CCSDS_OMM_VERS":"2.0","COMMENT":"GENERATED VIA SPACE-TRACK.ORG API","CREATION_DATE":"2021-07-02T22:16:10","ORIGINATOR":"18 SPCS","OBJECT_NAME":"STARLINK-2364","OBJECT_ID":"2021-021AW","CENTER_NAME":"EARTH","REF_FRAME":"TEME","TIME_SYSTEM":"UTC","MEAN_ELEMENT_THEORY":"SGP4","EPOCH":"2021-07-02T20:00:01.000224","MEAN_MOTION":15.73201212,"ECCENTRICITY":0.0002507,"INCLINATION":53.0489,"RA_OF_ASC_NODE":29.3067,"ARG_OF_PERICENTER":20.298,"MEAN_ANOMALY":234.1985,"EPHEMERIS_TYPE":0,"CLASSIFICATION_TYPE":"U","NORAD_CAT_ID":47904,"ELEMENT_SET_NO":999,"REV_AT_EPOCH":1788,"BSTAR":0.000097556,"MEAN_MOTION_DOT":0.00013095,"MEAN_MOTION_DDOT":0,"SEMIMAJOR_AXIS":6727.892,"PERIOD":91.533,"APOAPSIS":351.443,"PERIAPSIS":348.07,"OBJECT_TYPE":"PAYLOAD","RCS_SIZE":"LARGE","COUNTRY_CODE":"US","LAUNCH_DATE":"2021-03-14","SITE":"AFETR","DECAY_DATE":null,"DECAYED":0,"FILE":3068609,"GP_ID":180169933,"TLE_LINE0":"0 STARLINK-2364","TLE_LINE1":"1 47904U 21021AW  21183.83334491  .00013095  00000-0  97556-4 0  9994","TLE_LINE2":"2 47904  53.0489  29.3067 0002507  20.2980 234.1985 15.73201212 17887"},"version":"v1.0","launch":"600f9a8d8f798e2a4d5f979e","longitude":-73.7706433403412,"latitude":27.146343763135413,"height_km":351.97078302470436,"velocity_kms":7.701093038872533,"id":"605a432de2739200074f2fd9"},{"spaceTrack":{"CCSDS_OMM_VERS":"2.0","COMMENT":"GENERATED VIA SPACE-TRACK.ORG API","CREATION_DATE":"2021-07-02T17:51:43","ORIGINATOR":"18 SPCS","OBJECT_NAME":"STARLINK-2328","OBJECT_ID":"2021-021N","CENTER_NAME":"EARTH","REF_FRAME":"TEME","TIME_SYSTEM":"UTC","MEAN_ELEMENT_THEORY":"SGP4","EPOCH":"2021-07-02T14:00:01.999872","MEAN_MOTION":15.73180965,"ECCENTRICITY":0.0002056,"INCLINATION":53.0487,"RA_OF_ASC_NODE":30.5597,"ARG_OF_PERICENTER":33.6722,"MEAN_ANOMALY":237.8208,"EPHEMERIS_TYPE":0,"CLASSIFICATION_TYPE":"U","NORAD_CAT_ID":47872,"ELEMENT_SET_NO":999,"REV_AT_EPOCH":368,"BSTAR":0.00035319,"MEAN_MOTION_DOT":0.00049209,"MEAN_MOTION_DDOT":0,"SEMIMAJOR_AXIS":6727.949,"PERIOD":91.534,"APOAPSIS":351.198,"PERIAPSIS":348.431,"OBJECT_TYPE":"PAYLOAD","RCS_SIZE":"LARGE","COUNTRY_CODE":"US","LAUNCH_DATE":"2021-03-14","SITE":"AFETR","DECAY_DATE":null,"DECAYED":0,"FILE":3068555,"GP_ID":180168915,"TLE_LINE0":"0 STARLINK-2328","TLE_LINE1":"1 47872U 21021N   21183.58335648  .00049209  00000-0  35319-3 0  9999","TLE_LINE2":"2 47872  53.0487  30.5597 0002056  33.6722 237.8208 15.73180965  3684"},"version":"v1.0","launch":"600f9a8d8f798e2a4d5f979e","longitude":-78.80207107350985,"latitude":31.768642276574294,"height_km":352.0375705942206,"velocity_kms":7.7019081004538545,"id":"605a432ee2739200074f301b"},{"spaceTrack":{"CCSDS_OMM_VERS":"2.0","COMMENT":"GENERATED VIA SPACE-TRACK.ORG API","CREATION_DATE":"2021-07-02T22:16:10","ORIGINATOR":"18 SPCS","OBJECT_NAME":"STARLINK-2372","OBJECT_ID":"2021-021BE","CENTER_NAME":"EARTH","REF_FRAME":"TEME","TIME_SYSTEM":"UTC","MEAN_ELEMENT_THEORY":"SGP4","EPOCH":"2021-07-02T20:00:01.000224","MEAN_MOTION":15.25162461,"ECCENTRICITY":0.0001408,"INCLINATION":53.049,"RA_OF_ASC_NODE":32.6481,"ARG_OF_PERICENTER":71.9655,"MEAN_ANOMALY":208.0533,"EPHEMERIS_TYPE":0,"CLASSIFICATION_TYPE":"U","NORAD_CAT_ID":47912,"ELEMENT_SET_NO":999,"REV_AT_EPOCH":1783,"BSTAR":-0.045883,"MEAN_MOTION_DOT":-0.01067741,"MEAN_MOTION_DDOT":0,"SEMIMAJOR_AXIS":6868.435,"PERIOD":94.416,"APOAPSIS":491.267,"PERIAPSIS":489.333,"OBJECT_TYPE":"PAYLOAD","RCS_SIZE":"LARGE","COUNTRY_CODE":"US","LAUNCH_DATE":"2021-03-14","SITE":"AFETR","DECAY_DATE":null,"DECAYED":0,"FILE":3068618,"GP_ID":180169850,"TLE_LINE0":"0 STARLINK-2372","TLE_LINE1":"1 47912U 21021BE  21183.83334491 -.01067741  00000-0 -45883-1 0  9996","TLE_LINE2":"2 47912  53.0490  32.6481 0001408  71.9655 208.0533 15.25162461 17839"},"version":"v1.0","launch":"600f9a8d8f798e2a4d5f979e","longitude":-65.33251614081398,"latitude":21.87874444473757,"height_km":491.5640532042544,"velocity_kms":7.622359772757113,"id":"605a432ee2739200074f3023"},{"spaceTrack":{"CCSDS_OMM_VERS":"2.0","COMMENT":"GENERATED VIA SPACE-TRACK.ORG API","CREATION_DATE":"2021-07-02T17:51:43","ORIGINATOR":"18 SPCS","OBJECT_NAME":"STARLINK-2367","OBJECT_ID":"2021-021AZ","CENTER_NAME":"EARTH","REF_FRAME":"TEME","TIME_SYSTEM":"UTC","MEAN_ELEMENT_THEORY":"SGP4","EPOCH":"2021-07-02T14:00:01.999872","MEAN_MOTION":15.06390124,"ECCENTRICITY":0.0001632,"INCLINATION":53.0541,"RA_OF_ASC_NODE":43.0583,"ARG_OF_PERICENTER":89.9607,"MEAN_ANOMALY":118.5265,"EPHEMERIS_TYPE":0,"CLASSIFICATION_TYPE":"U","NORAD_CAT_ID":47907,"ELEMENT_SET_NO":999,"REV_AT_EPOCH":360,"BSTAR":0.0016184,"MEAN_MOTION_DOT":0.000239,"MEAN_MOTION_DDOT":0,"SEMIMAJOR_AXIS":6925.379,"PERIOD":95.593,"APOAPSIS":548.374,"PERIAPSIS":546.114,"OBJECT_TYPE":"PAYLOAD","RCS_SIZE":"LARGE","COUNTRY_CODE":"US","LAUNCH_DATE":"2021-03-14","SITE":"AFETR","DECAY_DATE":null,"DECAYED":0,"FILE":3068555,"GP_ID":180168669,"TLE_LINE0":"0 STARLINK-2367","TLE_LINE1":"1 47907U 21021AZ  21183.58335648  .00023900  00000-0  16184-2 0  9996","TLE_LINE2":"2 47907  53.0541  43.0583 0001632  89.9607 118.5265 15.06390124  3609"},"version":"v1.0","launch":"600f9a8d8f798e2a4d5f979e","longitude":135.2820735710158,"latitude":-8.175623048714414,"height_km":549.7051981801278,"velocity_kms":7.5876158041253605,"id":"605a432ee2739200074f3022"},{"spaceTrack":{"CCSDS_OMM_VERS":"2.0","COMMENT":"GENERATED VIA SPACE-TRACK.ORG API","CREATION_DATE":"2021-07-02T17:51:43","ORIGINATOR":"18 SPCS","OBJECT_NAME":"STARLINK-2323","OBJECT_ID":"2021-021J","CENTER_NAME":"EARTH","REF_FRAME":"TEME","TIME_SYSTEM":"UTC","MEAN_ELEMENT_THEORY":"SGP4","EPOCH":"2021-07-02T14:00:01.999872","MEAN_MOTION":15.73203735,"ECCENTRICITY":0.00022,"INCLINATION":53.0484,"RA_OF_ASC_NODE":30.5604,"ARG_OF_PERICENTER":19.8717,"MEAN_ANOMALY":250.3297,"EPHEMERIS_TYPE":0,"CLASSIFICATION_TYPE":"U","NORAD_CAT_ID":47868,"ELEMENT_SET_NO":999,"REV_AT_EPOCH":368,"BSTAR":-0.0024422,"MEAN_MOTION_DOT":-0.00330429,"MEAN_MOTION_DDOT":0,"SEMIMAJOR_AXIS":6727.885,"PERIOD":91.533,"APOAPSIS":351.23,"PERIAPSIS":348.269,"OBJECT_TYPE":"PAYLOAD","RCS_SIZE":"LARGE","COUNTRY_CODE":"US","LAUNCH_DATE":"2021-03-14","SITE":"AFETR","DECAY_DATE":null,"DECAYED":0,"FILE":3068555,"GP_ID":180168415,"TLE_LINE0":"0 STARLINK-2323","TLE_LINE1":"1 47868U 21021J   21183.58335648 -.00330429  00000-0 -24422-2 0  9995","TLE_LINE2":"2 47868  53.0484  30.5604 0002200  19.8717 250.3297 15.73203735  3685"},"version":"v1.0","launch":"600f9a8d8f798e2a4d5f979e","longitude":-80.01735864920673,"latitude":32.792918987177636,"height_km":353.26606228334276,"velocity_kms":7.701134725047343,"id":"605a432ee2739200074f3024"},{"spaceTrack":{"CCSDS_OMM_VERS":"2.0","COMMENT":"GENERATED VIA SPACE-TRACK.ORG API","CREATION_DATE":"2021-07-02T17:51:43","ORIGINATOR":"18 SPCS","OBJECT_NAME":"STARLINK-2360","OBJECT_ID":"2021-021AS","CENTER_NAME":"EARTH","REF_FRAME":"TEME","TIME_SYSTEM":"UTC","MEAN_ELEMENT_THEORY":"SGP4","EPOCH":"2021-07-02T14:00:01.999872","MEAN_MOTION":15.27249816,"ECCENTRICITY":0.000127,"INCLINATION":53.0484,"RA_OF_ASC_NODE":33.7235,"ARG_OF_PERICENTER":69.5254,"MEAN_ANOMALY":14.9139,"EPHEMERIS_TYPE":0,"CLASSIFICATION_TYPE":"U","NORAD_CAT_ID":47900,"ELEMENT_SET_NO":999,"REV_AT_EPOCH":367,"BSTAR":-0.04314,"MEAN_MOTION_DOT":-0.01069507,"MEAN_MOTION_DDOT":0,"SEMIMAJOR_AXIS":6862.175,"PERIOD":94.287,"APOAPSIS":484.911,"PERIAPSIS":483.168,"OBJECT_TYPE":"PAYLOAD","RCS_SIZE":"LARGE","COUNTRY_CODE":"US","LAUNCH_DATE":"2021-03-14","SITE":"AFETR","DECAY_DATE":null,"DECAYED":0,"FILE":3068555,"GP_ID":180168419,"TLE_LINE0":"0 STARLINK-2360","TLE_LINE1":"1 47900U 21021AS  21183.58335648 -.01069507  00000-0 -43140-1 0  9996","TLE_LINE2":"2 47900  53.0484  33.7235 0001270  69.5254  14.9139 15.27249816  3678"},"version":"v1.0","launch":"600f9a8d8f798e2a4d5f979e","longitude":13.836631748762612,"latitude":-49.663559086507234,"height_km":504.47887366070154,"velocity_kms":7.61127523061481,"id":"605a432ee2739200074f3025"},{"spaceTrack":{"CCSDS_OMM_VERS":"2.0","COMMENT":"GENERATED VIA SPACE-TRACK.ORG API","CREATION_DATE":"2021-07-02T17:51:43","ORIGINATOR":"18 SPCS","OBJECT_NAME":"STARLINK-2348","OBJECT_ID":"2021-021AE","CENTER_NAME":"EARTH","REF_FRAME":"TEME","TIME_SYSTEM":"UTC","MEAN_ELEMENT_THEORY":"SGP4","EPOCH":"2021-07-02T14:00:01.999872","MEAN_MOTION":15.2733743,"ECCENTRICITY":0.0001251,"INCLINATION":53.0494,"RA_OF_ASC_NODE":33.7303,"ARG_OF_PERICENTER":70.969,"MEAN_ANOMALY":5.6166,"EPHEMERIS_TYPE":0,"CLASSIFICATION_TYPE":"U","NORAD_CAT_ID":47888,"ELEMENT_SET_NO":999,"REV_AT_EPOCH":367,"BSTAR":-0.043019,"MEAN_MOTION_DOT":-0.01069378,"MEAN_MOTION_DDOT":0,"SEMIMAJOR_AXIS":6861.913,"PERIOD":94.282,"APOAPSIS":484.636,"PERIAPSIS":482.919,"OBJECT_TYPE":"PAYLOAD","RCS_SIZE":"LARGE","COUNTRY_CODE":"US","LAUNCH_DATE":"2021-03-14","SITE":"AFETR","DECAY_DATE":null,"DECAYED":0,"FILE":3068555,"GP_ID":180168917,"TLE_LINE0":"0 STARLINK-2348","TLE_LINE1":"1 47888U 21021AE  21183.58335648 -.01069378  00000-0 -43019-1 0  9992","TLE_LINE2":"2 47888  53.0494  33.7303 0001251  70.9690   5.6166 15.27337430  3676"},"version":"v1.0","launch":"600f9a8d8f798e2a4d5f979e","longitude":3.500963383190024,"latitude":-46.260359443378555,"height_km":502.81928201916253,"velocity_kms":7.612199545090725,"id":"605a432ee2739200074f3026"}]